{
  "links" : {
    "next" : "https://api.nasa.gov/neo/rest/v1/feed?start_date=2016-03-16&end_date=2016-03-16&detailed=true&api_key=t0TVs3DtDT2H8Oy2Zy8m2eVrNsAVKAexjcZXUckd",
    "prev" : "https://api.nasa.gov/neo/rest/v1/feed?start_date=2016-03-14&end_date=2016-03-14&detailed=true&api_key=t0TVs3DtDT2H8Oy2Zy8m2eVrNsAVKAexjcZXUckd",
    "self" : "https://api.nasa.gov/neo/rest/v1/feed?start_date=2016-03-15&end_date=2016-03-15&detailed=true&api_key=t0TVs3DtDT2H8Oy2Zy8m2eVrNsAVKAexjcZXUckd"
  },
  "element_count" : 14,
  "near_earth_objects" : {
    "2016-03-15" : [ {
      "links" : {
        "self" : "https://api.nasa.gov/neo/rest/v1/neo/2465824?api_key=t0TVs3DtDT2H8Oy2Zy8m2eVrNsAVKAexjcZXUckd"
      },
      "neo_reference_id" : "2465824",
      "name" : "465824 (2010 FR)",
      "nasa_jpl_url" : "http://ssd.jpl.nasa.gov/sbdb.cgi?sstr=2465824",
      "absolute_magnitude_h" : 21.7,
      "estimated_diameter" : {
        "kilometers" : {
          "estimated_diameter_min" : 0.1214940408,
          "estimated_diameter_max" : 0.2716689341
        },
        "meters" : {
          "estimated_diameter_min" : 121.4940407996,
          "estimated_diameter_max" : 271.6689340891
        },
        "miles" : {
          "estimated_diameter_min" : 0.0754928736,
          "estimated_diameter_max" : 0.1688071972
        },
        "feet" : {
          "estimated_diameter_min" : 398.6025088171,
          "estimated_diameter_max" : 891.3023057169
        }
      },
      "is_potentially_hazardous_asteroid" : true,
      "close_approach_data" : [ {
        "close_approach_date" : "2016-03-15",
        "epoch_date_close_approach" : 1458025200000,
        "relative_velocity" : {
          "kilometers_per_second" : "15.1051915909",
          "kilometers_per_hour" : "54378.6897272076",
          "miles_per_hour" : "33788.8030696641"
        },
        "miss_distance" : {
          "astronomical" : "0.0887852704",
          "lunar" : "34.5374679565",
          "kilometers" : "13282087",
          "miles" : "8253106.5"
        },
        "orbiting_body" : "Earth"
      } ],
      "orbital_data" : {
        "orbit_id" : "38",
        "orbit_determination_date" : "2017-04-06 09:19:30",
        "orbit_uncertainty" : "0",
        "minimum_orbit_intersection" : ".00557885",
        "jupiter_tisserand_invariant" : "5.439",
        "epoch_osculation" : "2458000.5",
        "eccentricity" : ".3653957038096176",
        "semi_major_axis" : "1.131820144221645",
        "inclination" : "14.23778990443233",
        "ascending_node_longitude" : "167.3210472233046",
        "orbital_period" : "439.8094491437722",
        "perihelion_distance" : ".7182579260378743",
        "perihelion_argument" : "272.5808823870116",
        "aphelion_distance" : "1.545382362405416",
        "perihelion_time" : "2457842.610704857482",
        "mean_anomaly" : "129.238119740182",
        "mean_motion" : ".8185363018026409",
        "equinox" : "J2000"
      }
    }, {
      "links" : {
        "self" : "https://api.nasa.gov/neo/rest/v1/neo/3457840?api_key=t0TVs3DtDT2H8Oy2Zy8m2eVrNsAVKAexjcZXUckd"
      },
      "neo_reference_id" : "3457840",
      "name" : "(2009 HA21)",
      "nasa_jpl_url" : "http://ssd.jpl.nasa.gov/sbdb.cgi?sstr=3457840",
      "absolute_magnitude_h" : 20.8,
      "estimated_diameter" : {
        "kilometers" : {
          "estimated_diameter_min" : 0.1838886721,
          "estimated_diameter_max" : 0.411187571
        },
        "meters" : {
          "estimated_diameter_min" : 183.8886720703,
          "estimated_diameter_max" : 411.1875710413
        },
        "miles" : {
          "estimated_diameter_min" : 0.1142630881,
          "estimated_diameter_max" : 0.2555000322
        },
        "feet" : {
          "estimated_diameter_min" : 603.309310875,
          "estimated_diameter_max" : 1349.040630575
        }
      },
      "is_potentially_hazardous_asteroid" : true,
      "close_approach_data" : [ {
        "close_approach_date" : "2016-03-15",
        "epoch_date_close_approach" : 1458025200000,
        "relative_velocity" : {
          "kilometers_per_second" : "19.9397464294",
          "kilometers_per_hour" : "71783.0871457478",
          "miles_per_hour" : "44603.2187878676"
        },
        "miss_distance" : {
          "astronomical" : "0.1439002376",
          "lunar" : "55.9771881104",
          "kilometers" : "21527168",
          "miles" : "13376362"
        },
        "orbiting_body" : "Earth"
      } ],
      "orbital_data" : {
        "orbit_id" : "26",
        "orbit_determination_date" : "2017-07-26 06:18:55",
        "orbit_uncertainty" : "1",
        "minimum_orbit_intersection" : ".0465758",
        "jupiter_tisserand_invariant" : "4.283",
        "epoch_osculation" : "2458000.5",
        "eccentricity" : ".7291075636048079",
        "semi_major_axis" : "1.460450096735904",
        "inclination" : "6.414535285962795",
        "ascending_node_longitude" : "205.5002225703682",
        "orbital_period" : "644.6567131958376",
        "perihelion_distance" : ".3956248849383832",
        "perihelion_argument" : "219.7706832044524",
        "aphelion_distance" : "2.525275308533426",
        "perihelion_time" : "2458057.753716589152",
        "mean_anomaly" : "328.0274205632398",
        "mean_motion" : ".5584367503369767",
        "equinox" : "J2000"
      }
    }, {
      "links" : {
        "self" : "https://api.nasa.gov/neo/rest/v1/neo/3745106?api_key=t0TVs3DtDT2H8Oy2Zy8m2eVrNsAVKAexjcZXUckd"
      },
      "neo_reference_id" : "3745106",
      "name" : "(2016 EA27)",
      "nasa_jpl_url" : "http://ssd.jpl.nasa.gov/sbdb.cgi?sstr=3745106",
      "absolute_magnitude_h" : 20.8,
      "estimated_diameter" : {
        "kilometers" : {
          "estimated_diameter_min" : 0.1838886721,
          "estimated_diameter_max" : 0.411187571
        },
        "meters" : {
          "estimated_diameter_min" : 183.8886720703,
          "estimated_diameter_max" : 411.1875710413
        },
        "miles" : {
          "estimated_diameter_min" : 0.1142630881,
          "estimated_diameter_max" : 0.2555000322
        },
        "feet" : {
          "estimated_diameter_min" : 603.309310875,
          "estimated_diameter_max" : 1349.040630575
        }
      },
      "is_potentially_hazardous_asteroid" : false,
      "close_approach_data" : [ {
        "close_approach_date" : "2016-03-15",
        "epoch_date_close_approach" : 1458025200000,
        "relative_velocity" : {
          "kilometers_per_second" : "18.1273017373",
          "kilometers_per_hour" : "65258.2862541886",
          "miles_per_hour" : "40548.9612561096"
        },
        "miss_distance" : {
          "astronomical" : "0.3050231908",
          "lunar" : "118.6540222168",
          "kilometers" : "45630820",
          "miles" : "28353678"
        },
        "orbiting_body" : "Earth"
      } ],
      "orbital_data" : {
        "orbit_id" : "23",
        "orbit_determination_date" : "2017-04-06 08:27:51",
        "orbit_uncertainty" : "4",
        "minimum_orbit_intersection" : ".302438",
        "jupiter_tisserand_invariant" : "3.602",
        "epoch_osculation" : "2458000.5",
        "eccentricity" : ".4511013138137185",
        "semi_major_axis" : "1.941084987539274",
        "inclination" : "32.28310227629935",
        "ascending_node_longitude" : "160.25654289",
        "orbital_period" : "987.7914278463278",
        "perihelion_distance" : "1.065458999436222",
        "perihelion_argument" : "73.90831124890815",
        "aphelion_distance" : "2.816710975642326",
        "perihelion_time" : "2457524.346876819261",
        "mean_anomaly" : "173.533723327404",
        "mean_motion" : ".3644494068802607",
        "equinox" : "J2000"
      }
    } ]
  }
}